{"type":"FeatureCollection","properties":{"name":"Nürburgring Nordschleife","license":"ODbL-1.0","source":"https://github.com/chendo/opentrackdata","sourceCommit":"31dda5f6cb9bad2de52c81af9b91796e7ee6f7f8","attribution":"© OpenTrackData, © OpenStreetMap contributors. Elevation: AWS Terrain Tiles.","notes":"Extracted lap_profile; consecutive duplicate coordinates removed. Elevation is terrain-derived, not a surveyed road surface. Polyline origin defines OpenRoad timing."},"features":[{"type":"Feature","properties":{"id":"nordschleife","length":20832},"geometry":{"type":"LineString","coordinates":[[6.939961,50.3381322,582.74],[6.9399485,50.3381323,582.78],[6.9398513,50.3381263,583.15],[6.9397653,50.3381136,583.52],[6.9396753,50.3380906,583.86],[6.9393239,50.3379842,584.04],[6.9391507,50.3379456,583.44],[6.9390216,50.3379337,582.97],[6.9389073,50.3379374,582.67],[6.9388018,50.3379504,582.48],[6.9386498,50.3379878,582.3],[6.9385453,50.3380322,582.3],[6.938407,50.3381112,582.57],[6.9382591,50.3381931,583.08],[6.9381017,50.3382883,583.79],[6.9380255,50.3383435,584.14],[6.937967,50.3383942,584.43],[6.9379093,50.3384501,584.71],[6.9378549,50.3385113,584.98],[6.9378059,50.3385782,585.23],[6.9376799,50.3387776,585.7],[6.9375762,50.338898,585.79],[6.9375013,50.3389569,585.76],[6.9374185,50.3390061,585.65],[6.9373233,50.3390498,585.41],[6.9368694,50.3392313,583.1],[6.9367447,50.3392874,582.41],[6.9366799,50.3393262,582.07],[6.9366193,50.3393707,581.78],[6.9365551,50.3394391,581.47],[6.9365112,50.3395032,581.28],[6.9364737,50.3395809,581.16],[6.9364028,50.3397556,581.22],[6.9363398,50.3398391,581.38],[6.9362735,50.3398927,581.5],[6.9362103,50.3399294,581.56],[6.9361394,50.3399589,581.59],[6.9360605,50.3399823,581.54],[6.9359497,50.340003,581.4],[6.9341307,50.3401914,580.6],[6.9339946,50.340213,580.76],[6.9339092,50.3402372,580.87],[6.9338072,50.340274,580.99],[6.9337211,50.3403215,581.05],[6.9336818,50.3403501,581.04],[6.9336298,50.3403926,580.96],[6.9335841,50.3404384,580.8],[6.9335457,50.3404854,580.56],[6.9335199,50.3405348,580.22],[6.933507,50.3405774,579.86],[6.9334978,50.3406417,579.25],[6.9334879,50.3407896,577.49],[6.9334604,50.3409375,575.47],[6.9334324,50.3410153,574.35],[6.9334092,50.3410554,573.78],[6.9333227,50.3411648,572.35],[6.9332421,50.3412295,571.69],[6.9331695,50.3412759,571.29],[6.9330873,50.3413213,570.9],[6.932982,50.3413696,570.46],[6.9311555,50.3421798,559.95],[6.9302948,50.3425517,560.01],[6.9295538,50.3428825,558.03],[6.9293534,50.3429788,557.81],[6.9291604,50.3430844,557.86],[6.9289692,50.3431988,557.93],[6.9287777,50.3433293,558.02],[6.9285681,50.3434911,558.35],[6.9274584,50.344365,564.07],[6.9264573,50.3451554,579.25],[6.9261688,50.3453806,582.36],[6.9260815,50.3454649,583.56],[6.9260372,50.3455173,584.31],[6.9259892,50.3455827,585.17],[6.9259449,50.3456769,586.09],[6.9259162,50.3457699,586.7],[6.9259058,50.3458963,586.83],[6.9258173,50.3464999,583.4],[6.9258229,50.3466263,582.06],[6.9258378,50.3466946,581.25],[6.9258729,50.3467818,580.16],[6.9259058,50.34685,579.5],[6.9259703,50.3469505,578.66],[6.9264776,50.347712,581.83],[6.9265864,50.3479031,583.99],[6.9266375,50.3480198,585.46],[6.9266723,50.3481272,586.79],[6.92671,50.3482964,588.9],[6.9268463,50.3488714,596.6],[6.9269088,50.3490635,598.32],[6.9269373,50.3492061,598.73],[6.926953,50.3493604,599.44],[6.926965,50.3494568,600.2],[6.9269758,50.3495557,600.8],[6.9269876,50.3497119,600.21],[6.9269788,50.3498747,597.89],[6.926951,50.3500629,594.37],[6.9268861,50.350568,584.99],[6.9268366,50.3508198,582.19],[6.9268148,50.351027,580.23],[6.9267751,50.3511836,578.61],[6.9267166,50.3514207,576],[6.9266446,50.3516258,573.86],[6.9265521,50.3518442,572.06],[6.9264636,50.3520617,570.56],[6.9263843,50.3522085,568.98],[6.9262719,50.3524148,565.76],[6.9259552,50.3528903,559.04],[6.9258059,50.3530929,558.07],[6.9256267,50.353344,558.36],[6.9252582,50.3538457,561.01],[6.9251218,50.3540589,561.95],[6.9248292,50.3545279,562.47],[6.9246483,50.3548164,561.05],[6.9245212,50.3550213,559.48],[6.9242833,50.3554158,556.66],[6.9241979,50.3555447,555.85],[6.924118,50.3556528,555.17],[6.9240161,50.355785,554.13],[6.9238758,50.3559361,552.55],[6.9236776,50.3561146,550.86],[6.9235414,50.3562218,550.07],[6.9233907,50.3563301,549.42],[6.9231589,50.3564759,548.69],[6.9227554,50.3566851,547.19],[6.9226446,50.3567291,546.68],[6.9224703,50.3567984,545.92],[6.9222978,50.3568596,545.15],[6.9221102,50.356918,544.27],[6.9218753,50.3569869,543.14],[6.9206498,50.357339,536.86],[6.9204898,50.3573871,536.27],[6.920398,50.3574215,535.92],[6.9202839,50.3574769,535.43],[6.9201928,50.3575358,534.95],[6.9201354,50.3575864,534.58],[6.9200908,50.3576358,534.23],[6.9200398,50.3577225,533.68],[6.9200173,50.3577942,533.25],[6.9200091,50.3578824,532.74],[6.9200174,50.3579393,532.43],[6.9200294,50.3579939,532.12],[6.920062,50.358063,531.74],[6.9201112,50.3581311,531.35],[6.9201767,50.3581975,530.96],[6.920264,50.35826,530.52],[6.9203826,50.358326,529.8],[6.9205116,50.3583743,528.99],[6.9206661,50.3584196,527.91],[6.9216438,50.3586738,523.65],[6.9222981,50.3588445,520.88],[6.9229514,50.3590202,517.99],[6.9235284,50.359197,516.34],[6.9237932,50.3592983,515.76],[6.9239836,50.3593836,514.82],[6.9243022,50.3595875,512.16],[6.9244765,50.3596887,510.9],[6.9246582,50.3597918,509.58],[6.9248197,50.35987,508.43],[6.9249923,50.3599408,507.09],[6.9252031,50.3600251,505.61],[6.925549,50.3601691,503.25],[6.9257262,50.3602625,501.77],[6.9259962,50.3604294,499.05],[6.9270943,50.3611742,484.29],[6.9274385,50.3613881,481.04],[6.9277273,50.3615457,479.35],[6.9280404,50.3617002,476.92],[6.9284265,50.3619039,474.68],[6.9286755,50.3620536,474.63],[6.9290531,50.3623205,474.47],[6.9292588,50.3624846,474.35],[6.9295174,50.3627466,474.15],[6.9296587,50.3629459,474.13],[6.9298513,50.3632478,475.19],[6.9301003,50.363643,477.64],[6.9301944,50.3637835,478.46],[6.9303471,50.3640158,480.16],[6.9303796,50.3640744,480.54],[6.9304066,50.3641411,480.91],[6.9304239,50.3642155,481.21],[6.9304248,50.364269,481.4],[6.9303693,50.3651036,481.1],[6.9303918,50.3652039,480.95],[6.9304231,50.3652782,480.7],[6.930464,50.3653494,480.41],[6.9305254,50.3654282,480.04],[6.9306133,50.3655136,479.58],[6.9307336,50.3655937,478.91],[6.9308645,50.3656556,478.14],[6.9309604,50.3656926,477.62],[6.9312191,50.3657989,476.49],[6.931316,50.3658441,476.12],[6.9313914,50.3658922,475.9],[6.9314524,50.3659453,475.8],[6.9315088,50.3660073,475.77],[6.9315687,50.3660918,475.76],[6.9316145,50.3661673,475.74],[6.9316494,50.3662466,475.77],[6.9316499,50.3663217,475.95],[6.9316273,50.3663759,476.19],[6.9315847,50.3664326,476.52],[6.9315194,50.3664881,476.94],[6.9314422,50.3665381,477.38],[6.9313439,50.3666015,477.91],[6.9312899,50.3666455,478.21],[6.9312382,50.3667101,478.49],[6.9312112,50.3667689,478.62],[6.9311996,50.3668377,478.62],[6.9312085,50.3669047,478.48],[6.9312263,50.366962,478.26],[6.9312706,50.3670268,477.86],[6.931333,50.367081,477.32],[6.9314038,50.367131,476.7],[6.9316566,50.3672939,474.22],[6.9319367,50.3674604,471.35],[6.9321997,50.3675983,469.1],[6.9328337,50.3679011,466.62],[6.9333875,50.3681664,466.83],[6.9335179,50.3682366,466.96],[6.9336565,50.3683198,467.09],[6.9338949,50.3684889,467.2],[6.9345979,50.3690121,467.97],[6.9348776,50.3691952,468.81],[6.9354901,50.3695641,469.6],[6.9361113,50.3699443,465.86],[6.9364404,50.370149,464.39],[6.9365545,50.3702299,464.09],[6.936651,50.3703069,463.84],[6.9373993,50.3709831,460.85],[6.9374975,50.3710844,460.51],[6.9375636,50.3711671,460.29],[6.9376049,50.3712316,460.16],[6.9376537,50.3713213,460],[6.9376874,50.3714125,459.87],[6.9377112,50.3714943,459.75],[6.9377226,50.3715873,459.62],[6.9377249,50.3716596,459.51],[6.9377163,50.3717375,459.38],[6.9377006,50.3718137,459.25],[6.937678,50.3718823,459.13],[6.9376517,50.3719546,458.99],[6.9374454,50.3724741,458.98],[6.9373743,50.3726569,460.03],[6.9373249,50.3728038,461.16],[6.9372307,50.3730133,462.67],[6.9371989,50.3730619,462.91],[6.9371618,50.3731022,463.08],[6.9371225,50.373141,463.18],[6.9370729,50.3731759,463.26],[6.9370272,50.373202,463.3],[6.9369729,50.3732289,463.35],[6.9369066,50.3732522,463.4],[6.9368542,50.3732703,463.43],[6.9367779,50.3732896,463.43],[6.9366985,50.3733039,463.35],[6.936609,50.3733146,463.13],[6.9365179,50.3733164,462.79],[6.9363973,50.3733138,462.18],[6.9362843,50.37331,461.51],[6.9360554,50.3733008,460.32],[6.9359439,50.3732967,459.89],[6.9358425,50.373298,459.59],[6.9357647,50.3733058,459.42],[6.935682,50.373318,459.25],[6.9356132,50.3733327,459.1],[6.9355579,50.3733486,458.98],[6.9354869,50.3733719,458.79],[6.9354048,50.3734016,458.56],[6.9347837,50.373635,455.37],[6.9345933,50.3737188,453.53],[6.9339379,50.3740316,445.3],[6.9338109,50.3741004,443.39],[6.9337375,50.374153,442.18],[6.933698,50.3741946,441.4],[6.933672,50.3742381,440.76],[6.9336456,50.3742799,440.06],[6.9336281,50.3743179,439.48],[6.9336219,50.3743548,439.03],[6.9336186,50.3743898,438.61],[6.9336215,50.3744327,438.16],[6.9336274,50.3744736,437.72],[6.9336552,50.3745521,436.96],[6.9336893,50.3745996,436.64],[6.9337594,50.3746612,436.46],[6.933825,50.3747019,436.52],[6.9339349,50.3747536,436.88],[6.934057,50.3747957,437.52],[6.9345677,50.3749516,440.43],[6.9349726,50.3750881,442.44],[6.9351266,50.3751422,442.56],[6.9352853,50.3751962,442.23],[6.935473,50.375269,441.27],[6.9356083,50.3753265,440.66],[6.9356828,50.3753605,440.47],[6.9357498,50.3753929,440.42],[6.9361361,50.3756001,440.49],[6.9362828,50.3756806,439.93],[6.9364006,50.3757481,439.09],[6.9364718,50.3757924,438.36],[6.9365427,50.375842,437.42],[6.9366032,50.3758967,436.23],[6.9366543,50.3759541,434.92],[6.9367007,50.3760218,433.34],[6.9367273,50.376065,432.36],[6.9367465,50.3761085,431.34],[6.9367641,50.3761612,430.09],[6.936771,50.3762111,428.86],[6.9367719,50.3762179,428.69],[6.9367891,50.3764242,423.53],[6.9367958,50.3764788,422.17],[6.9368148,50.3765339,420.89],[6.9368339,50.3765833,419.74],[6.936868,50.3766296,418.79],[6.9368988,50.3766757,417.79],[6.9369493,50.3767326,416.61],[6.9369891,50.3767743,415.75],[6.9375474,50.3773586,404.52],[6.9376044,50.3774115,403.67],[6.9376633,50.3774647,402.85],[6.9377225,50.3775082,402.3],[6.9377836,50.3775506,401.8],[6.937833,50.3775825,401.41],[6.9378864,50.3776153,400.98],[6.9379587,50.3776526,400.5],[6.9380248,50.3776858,399.93],[6.9381112,50.3777195,399.25],[6.9382103,50.3777565,398.24],[6.9383387,50.3777926,396.93],[6.9384531,50.3778208,395.77],[6.9386741,50.3778681,393.74],[6.9387448,50.377879,393.18],[6.9388142,50.3778854,392.71],[6.9388881,50.3778888,392.27],[6.9389592,50.3778897,391.89],[6.9390311,50.3778869,391.59],[6.939093,50.3778831,391.35],[6.9393639,50.3778521,390.51],[6.9396327,50.377817,389.44],[6.9397143,50.3778005,389.19],[6.9397812,50.3777854,388.99],[6.9398448,50.3777684,388.85],[6.939903,50.377751,388.76],[6.9399644,50.3777301,388.72],[6.9400501,50.3776993,388.68],[6.9406717,50.3774515,387.7],[6.9407741,50.3774057,387.33],[6.9420539,50.3768315,379.39],[6.9421347,50.3767931,379.09],[6.9422313,50.3767455,378.86],[6.9423017,50.376699,379],[6.942348,50.376663,379.24],[6.9423994,50.3766061,379.87],[6.9424359,50.3765602,380.47],[6.9424683,50.3765033,381.35],[6.9425668,50.3763229,384.43],[6.9426068,50.3762699,385.28],[6.9426677,50.3762159,385.97],[6.9427028,50.3761949,386.14],[6.9427464,50.3761711,386.29],[6.9428016,50.3761504,386.25],[6.9428568,50.3761345,386.1],[6.9429433,50.3761173,385.72],[6.942993,50.3761127,385.41],[6.9430528,50.3761097,385.01],[6.9431138,50.3761165,384.43],[6.9431673,50.3761297,383.8],[6.9432067,50.3761478,383.19],[6.9432437,50.3761707,382.5],[6.9433032,50.3762188,381.11],[6.9433478,50.3762656,379.82],[6.9434802,50.3764175,376.19],[6.9435459,50.3764768,374.78],[6.9436021,50.3765214,373.7],[6.9436604,50.3765557,372.81],[6.9437105,50.376581,372.13],[6.9437757,50.3766062,371.43],[6.9438564,50.3766328,370.77],[6.9439394,50.3766541,370.31],[6.9440273,50.3766707,370.03],[6.9441302,50.3766857,369.82],[6.9442456,50.3766992,369.51],[6.9443381,50.3767073,369.12],[6.9445261,50.3767244,367.87],[6.9446895,50.376737,366.61],[6.9450772,50.3767588,364.3],[6.9456287,50.3767773,360.97],[6.9462454,50.3767987,357],[6.9468351,50.3768173,351.47],[6.9470665,50.3768252,349.35],[6.9472465,50.3768283,347.76],[6.9473404,50.3768248,346.91],[6.9474339,50.3768195,346.02],[6.9475204,50.3768117,345.2],[6.9476114,50.3768013,344.38],[6.9477074,50.3767882,343.61],[6.9477807,50.376777,343.1],[6.9487327,50.3766263,340.47],[6.9490563,50.3765734,340.53],[6.949172,50.3765566,340.63],[6.9492594,50.3765506,340.71],[6.9493301,50.3765493,340.79],[6.9494044,50.3765533,340.86],[6.9494906,50.3765649,340.93],[6.9495765,50.376586,340.96],[6.9496563,50.3766136,340.93],[6.949741,50.376652,340.79],[6.9498095,50.3766927,340.54],[6.9498629,50.3767335,340.22],[6.9499778,50.3768618,339.17],[6.9501051,50.3769996,339.19],[6.9502582,50.3771687,341.07],[6.9503488,50.3773392,342.35],[6.9503862,50.3774456,342.81],[6.9503968,50.3775001,342.94],[6.9504047,50.3775797,343.06],[6.9504042,50.3776714,343.12],[6.9503958,50.3777697,343.13],[6.9503746,50.3779313,343.09],[6.9503624,50.3780933,343.03],[6.9503725,50.3781799,343.06],[6.9503922,50.3782354,343.16],[6.9504282,50.3782856,343.4],[6.9504692,50.3783241,343.67],[6.9505327,50.3783665,344.14],[6.9506232,50.3784116,344.82],[6.9507301,50.3784506,345.71],[6.950832,50.3784834,346.64],[6.9509776,50.3785292,348.1],[6.9511812,50.3785901,350.19],[6.9514983,50.3786772,353.05],[6.951855,50.3787675,355.7],[6.9519947,50.3788019,356.29],[6.9525578,50.3789338,356.77],[6.9529574,50.3790194,355.48],[6.9532793,50.379087,354.75],[6.9536856,50.379164,354.38],[6.9539443,50.3792088,354.75],[6.9541614,50.3792452,355.59],[6.954435,50.379285,356.83],[6.9551295,50.3793788,360.59],[6.9571482,50.3796526,374.54],[6.9573929,50.3796969,375.95],[6.9575476,50.3797362,376.42],[6.9576469,50.3797716,376.37],[6.9577893,50.3798301,375.96],[6.9579475,50.3799098,375.12],[6.9596111,50.3807016,366.44],[6.9599129,50.3808272,366.23],[6.9600041,50.3808556,366.45],[6.9600948,50.3808761,366.64],[6.9602111,50.3808933,366.75],[6.9602949,50.3809024,366.77],[6.9605126,50.3809131,366.58],[6.9606337,50.3809059,366.47],[6.9607031,50.3808968,366.44],[6.9607853,50.3808806,366.44],[6.9608703,50.3808507,366.49],[6.9609497,50.3808183,366.56],[6.9610284,50.3807747,366.67],[6.9611184,50.3807027,367.13],[6.9611668,50.3806481,367.68],[6.9612013,50.3805975,368.35],[6.9612642,50.3804477,371.01],[6.9612928,50.380355,373.05],[6.961356,50.3801557,378.35],[6.9613733,50.3800376,381.84],[6.9613802,50.3799142,385.47],[6.9613652,50.3797924,388.81],[6.9613297,50.3795267,395],[6.9612881,50.3792408,398.63],[6.9612526,50.3789693,400],[6.9612428,50.3786852,401.02],[6.9612546,50.3784537,400.64],[6.9612818,50.3781833,399.71],[6.9613277,50.3776318,399.02],[6.9613639,50.3774304,398.61],[6.9614087,50.3772527,398.22],[6.9614808,50.3770817,397.86],[6.9616853,50.3766946,398.02],[6.9618041,50.3765128,399.39],[6.9619026,50.3763874,401.14],[6.961964,50.3763226,402.12],[6.9620339,50.3762564,403.07],[6.9622493,50.3760835,405.04],[6.9625189,50.3758917,406.65],[6.9627606,50.3757272,408.13],[6.9629028,50.375644,409.19],[6.9631254,50.3755388,411],[6.9636168,50.3753319,415.07],[6.9639005,50.3752138,417.33],[6.9640965,50.3751522,418.09],[6.9647568,50.3749779,419.36],[6.9662788,50.3745754,416.52],[6.9665454,50.3745093,416.09],[6.9667454,50.3744759,416.04],[6.9669605,50.3744549,416.3],[6.967156,50.3744486,416.58],[6.9674084,50.3744527,417.24],[6.9690789,50.3744921,426.94],[6.9693936,50.3744883,429.32],[6.9699311,50.3744533,431.97],[6.9709749,50.3743769,435.19],[6.9722114,50.3742845,443.39],[6.9726817,50.3742499,448.23],[6.9730141,50.3742117,451.08],[6.973885,50.3740579,456.95],[6.9750276,50.3738469,463.18],[6.9751568,50.3738173,464.36],[6.9752902,50.3737836,465.68],[6.9754302,50.3737431,467.06],[6.9755765,50.3736972,468.52],[6.9757522,50.3736339,470.31],[6.9758487,50.3735955,471.28],[6.975943,50.3735556,472.22],[6.9760961,50.3734862,473.52],[6.9762385,50.3734154,474.76],[6.9767223,50.3731482,477.04],[6.9768907,50.373062,477.35],[6.9770698,50.3729772,477.48],[6.9772742,50.3728896,477.55],[6.9774917,50.3728085,478.17],[6.9777995,50.3727069,480.14],[6.9788332,50.3723983,496.62],[6.9791899,50.3723021,494.93],[6.9792601,50.3722862,494.52],[6.9793282,50.372273,494.27],[6.979411,50.3722621,494.18],[6.9794873,50.3722539,494.32],[6.9795866,50.3722501,494.78],[6.9796901,50.3722504,495.54],[6.9798158,50.3722562,496.68],[6.9799738,50.3722675,498.14],[6.9804693,50.3723229,501.53],[6.9806546,50.3723599,502.68],[6.9808906,50.3724318,504.66],[6.9811346,50.372513,507.12],[6.981575,50.3726665,511.72],[6.9820036,50.3728174,515.44],[6.9823467,50.3729537,517.65],[6.9826484,50.3730955,518.83],[6.9835504,50.3735391,524.46],[6.9839726,50.3737749,528.38],[6.9841767,50.3739009,529.71],[6.9844249,50.37404,530.95],[6.9846691,50.3741366,531.69],[6.9848665,50.3741911,531.82],[6.9850441,50.3742244,531.71],[6.98552,50.3742799,533.13],[6.9869267,50.3744278,539.89],[6.9875301,50.374476,542.32],[6.9877746,50.374509,543.46],[6.9881177,50.3745749,545.23],[6.9884966,50.3746399,547.25],[6.9886615,50.3746581,548.22],[6.9887235,50.3746593,548.52],[6.988788,50.3746557,548.78],[6.9889141,50.3746294,549.03],[6.988981,50.3746077,549.07],[6.9890352,50.374586,549.05],[6.9890981,50.3745537,548.94],[6.9891508,50.3745198,548.77],[6.9891983,50.3744809,548.53],[6.9892383,50.374442,548.25],[6.9892784,50.3743816,547.71],[6.9892931,50.374334,547.19],[6.9892949,50.3743301,547.15],[6.9893016,50.3742257,545.91],[6.989279,50.3741144,544.71],[6.9892332,50.3739997,544.08],[6.9891532,50.3738894,544.03],[6.9890714,50.3738167,544.07],[6.9889521,50.3737438,543.96],[6.9883673,50.3734333,543.65],[6.9879967,50.3732609,543.67],[6.987799,50.3731759,543.82],[6.9876086,50.3730785,544.33],[6.9874538,50.3729806,545.15],[6.9872994,50.3728797,546.17],[6.9870715,50.3727561,547.44],[6.9867738,50.3726326,548.46],[6.986574,50.3725351,549.16],[6.9863418,50.3724189,549.93],[6.9861575,50.3723461,550.31],[6.986014,50.3722963,550.58],[6.9859301,50.3722687,550.73],[6.9857538,50.3722049,551.21],[6.9856637,50.372163,551.62],[6.9856006,50.372114,552.2],[6.9855603,50.3720681,552.77],[6.9855401,50.3720384,553.13],[6.985524,50.3719967,553.65],[6.9855154,50.3719589,554.11],[6.9855207,50.3718951,554.83],[6.9855345,50.3718522,555.26],[6.9855543,50.371815,555.59],[6.9855797,50.3717852,555.82],[6.9856112,50.3717554,556.01],[6.9856611,50.3717188,556.18],[6.9857004,50.3716972,556.25],[6.9857426,50.3716785,556.27],[6.9857847,50.3716646,556.26],[6.9858327,50.3716527,556.22],[6.9859229,50.3716403,556.1],[6.9860131,50.3716377,555.93],[6.9860932,50.3716438,555.76],[6.9861704,50.3716599,555.57],[6.9862365,50.3716801,555.4],[6.9862777,50.371698,555.29],[6.9863204,50.3717197,555.15],[6.9863712,50.3717559,554.97],[6.9864019,50.3717858,554.84],[6.9864267,50.3718167,554.71],[6.9864786,50.3719076,554.32],[6.9865599,50.3720457,553.64],[6.9866447,50.3721555,553.04],[6.9867031,50.3722164,552.7],[6.9867639,50.3722613,552.42],[6.9868258,50.3723032,552.16],[6.9869824,50.3723906,551.55],[6.9874308,50.3726177,549.64],[6.9875788,50.3726891,549.06],[6.987671,50.3727265,548.8],[6.9878063,50.3727664,548.61],[6.9879518,50.372803,548.53],[6.990073,50.3732391,555.72],[6.9903361,50.3732789,557.74],[6.9906248,50.3733057,560.2],[6.9908304,50.3733205,562.02],[6.991353,50.3733586,566.82],[6.9914688,50.3733696,567.92],[6.9915993,50.3733902,569.2],[6.9916719,50.3734091,569.92],[6.9917266,50.3734279,570.48],[6.9918192,50.3734622,571.44],[6.9919117,50.3735044,572.41],[6.9920894,50.3735921,574.25],[6.9928938,50.3740057,582.75],[6.9930453,50.3741,584.97],[6.993234,50.3742348,588.16],[6.9933403,50.374325,589.96],[6.9937282,50.3746954,595.47],[6.9938518,50.3748275,597.11],[6.9939001,50.3749009,598.05],[6.99392,50.3749502,598.71],[6.9939329,50.3749892,599.24],[6.9939404,50.3750275,599.78],[6.993938,50.3750723,600.42],[6.9939355,50.3751049,600.9],[6.9939285,50.37515,601.56],[6.9939189,50.3751999,602.31],[6.9938989,50.375265,603.28],[6.9938091,50.3755506,607.27],[6.9937877,50.3756503,608.46],[6.9937882,50.3757101,609.11],[6.9937942,50.3757526,609.55],[6.9938091,50.3758095,610.1],[6.993831,50.3758572,610.53],[6.9938905,50.3759328,611.15],[6.9939564,50.3759995,611.65],[6.994172,50.3762049,613.05],[6.994615,50.3766241,616.64],[6.9946741,50.3766807,617.27],[6.994771,50.3767602,618.24],[6.9948545,50.3768092,618.92],[6.9949183,50.3768384,619.36],[6.9949989,50.3768681,619.87],[6.995089,50.3768954,620.4],[6.995217,50.3769172,621.01],[6.9953376,50.3769326,621.57],[6.9954495,50.3769337,621.95],[6.9956005,50.3769215,622.3],[6.9957386,50.376899,622.47],[6.9958213,50.3768769,622.44],[6.9959563,50.3768353,622.28],[6.9965631,50.3766315,620.73],[6.9967084,50.3765903,620.24],[6.9968334,50.3765653,619.92],[6.9969753,50.376542,619.57],[6.9971197,50.3765219,619.22],[6.9974813,50.3764762,618.38],[6.9976607,50.3764515,617.93],[6.9978341,50.3764224,617.45],[6.9988279,50.376227,615.48],[6.9990937,50.3761506,614.91],[6.9992111,50.3761026,614.47],[6.999324,50.376048,613.91],[6.9994479,50.3759777,613.11],[6.9995437,50.37591,612.25],[6.9996192,50.37585,611.44],[6.9997046,50.3757681,610.25],[6.9999126,50.3755608,607.01],[7.000018,50.3754699,605.56],[7.0001208,50.3753922,604.38],[7.0002236,50.3753338,603.55],[7.000371,50.3752684,602.64],[7.0005208,50.3752175,601.79],[7.0006809,50.3751715,600.88],[7.0008434,50.3751288,599.98],[7.0009795,50.3751007,599.36],[7.0010475,50.3750906,599.13],[7.0011181,50.3750855,599],[7.0012784,50.3750821,598.88],[7.0015668,50.3750738,598.62],[7.0017318,50.3750579,598.23],[7.0018146,50.3750444,597.93],[7.0018821,50.3750309,597.63],[7.0019346,50.3750152,597.31],[7.0019845,50.3749978,596.96],[7.0020698,50.3749604,596.23],[7.0021412,50.3749204,595.5],[7.0022343,50.3748663,594.59],[7.0031452,50.3742036,588.67],[7.0034467,50.3739665,588.77],[7.0035211,50.3738878,588.78],[7.0035825,50.3738095,588.74],[7.0036236,50.3737394,588.63],[7.0036498,50.3736819,588.49],[7.0036671,50.3736263,588.3],[7.0036748,50.3735549,587.97],[7.0036764,50.3734664,587.36],[7.003666,50.3734012,586.9],[7.0036496,50.3733341,586.36],[7.0036337,50.373283,585.92],[7.0035955,50.3732114,585.15],[7.0035628,50.3731595,584.52],[7.0035072,50.3730883,583.54],[7.0033565,50.3729013,580.54],[7.0031652,50.3726325,575.79],[7.0030378,50.3723985,571.81],[7.0029244,50.3721751,567.86],[7.0028568,50.3720379,565.41],[7.0028194,50.3719424,563.85],[7.0028009,50.3718849,562.97],[7.0027918,50.3718201,562.13],[7.0027922,50.3717877,561.78],[7.0027973,50.3717394,561.31],[7.0028147,50.3716867,560.94],[7.0028339,50.3716442,560.71],[7.0028661,50.371595,560.56],[7.0029226,50.3715424,560.68],[7.0029751,50.3714958,560.81],[7.0031941,50.3713491,561.78],[7.0033878,50.371225,562.18],[7.003549,50.3711497,562.07],[7.0037715,50.3710682,560.99],[7.0039391,50.3710297,559.81],[7.0040558,50.371009,558.93],[7.004288,50.3709818,557.22],[7.0045279,50.3709561,555.37],[7.0048126,50.3709183,553.11],[7.0049086,50.3708984,552.39],[7.0050076,50.3708709,551.69],[7.0050838,50.3708372,551.09],[7.0051511,50.3708015,550.58],[7.0052269,50.3707471,549.94],[7.0052875,50.3706846,549.28],[7.0053287,50.3706209,548.62],[7.0053518,50.370561,548.02],[7.0054877,50.3696971,541.49],[7.0055561,50.3692818,541.6],[7.0055588,50.3692337,541.67],[7.0055538,50.3691825,541.82],[7.0055367,50.369117,542.16],[7.0055175,50.3690684,542.62],[7.0054916,50.3690264,543.15],[7.0054549,50.3689842,543.79],[7.005393,50.3689191,544.99],[7.0053327,50.3688722,545.97],[7.0052364,50.368815,547.27],[7.0051156,50.3687667,548.46],[7.0049962,50.3687318,549.42],[7.0048635,50.3687102,550.15],[7.0046987,50.3686977,550.79],[7.0044655,50.3686986,551.31],[7.0035582,50.3687239,552.32],[7.0028591,50.3687703,551.66],[7.002167,50.3688122,550.88],[7.0019787,50.3688067,550.82],[7.001844,50.3687929,550.83],[7.0017259,50.3687648,551.06],[7.0016542,50.3687433,551.21],[7.0015817,50.3687128,551.5],[7.0015138,50.3686785,551.86],[7.0014583,50.368641,552.32],[7.0014081,50.3685953,552.95],[7.0013619,50.3685479,553.6],[7.0013265,50.3684923,554.45],[7.0012584,50.3683107,557.18],[7.0012051,50.3681955,558.44],[7.0011666,50.3681166,559.11],[7.0011121,50.3680433,559.5],[7.0010495,50.3679763,559.73],[7.0008721,50.3678235,559.99],[7.0002887,50.3673438,559.75],[7.0000889,50.3671762,558.06],[7.0000197,50.3671061,557.22],[6.9999734,50.3670478,556.53],[6.9997678,50.3667454,553.02],[6.9995861,50.3664307,549.9],[6.9995417,50.3663342,548.88],[6.9995177,50.3662743,548.22],[6.9994971,50.3661861,547.21],[6.9994933,50.3660771,545.97],[6.9995022,50.3660098,545.23],[6.9995187,50.3659309,544.43],[6.9995998,50.3655525,541.6],[6.999627,50.3653867,540.81],[6.999627,50.3652547,540.22],[6.9996227,50.3651809,539.88],[6.9995896,50.3648641,538.45],[6.9995869,50.3647337,537.93],[6.9996444,50.3639801,536.48],[6.9996245,50.3638507,537.17],[6.9996061,50.3638005,537.48],[6.9995886,50.3637688,537.69],[6.9995507,50.3637197,538],[6.9995143,50.3636798,538.27],[6.9994565,50.3636273,538.64],[6.9991,50.3633572,540.92],[6.9989725,50.3632687,541.68],[6.9988832,50.3632221,542.07],[6.9988038,50.3631828,542.38],[6.9986793,50.3631329,542.8],[6.9985269,50.3630894,543.23],[6.9983133,50.3630447,543.79],[6.9977575,50.3629641,545.26],[6.9973026,50.3628903,546.2],[6.9971471,50.3628492,546.45],[6.9970066,50.3627984,546.58],[6.9968833,50.3627409,546.55],[6.9967708,50.3626778,546.39],[6.9965836,50.3625553,545.85],[6.99599,50.3621613,543.51],[6.9956121,50.3619095,542.92],[6.9954271,50.3617721,542.89],[6.995283,50.3616453,542.79],[6.9951469,50.3614953,542.35],[6.9945034,50.3606246,535.46],[6.9944072,50.3604988,534.95],[6.9943059,50.3603811,534.6],[6.9941716,50.3602553,534.26],[6.9940018,50.360123,533.94],[6.9938145,50.3600001,533.68],[6.9936764,50.3599216,533.5],[6.9935358,50.3598496,533.32],[6.9933763,50.3597768,533.06],[6.993255,50.3597334,532.73],[6.9931312,50.359698,532.26],[6.9928801,50.3596288,531.29],[6.992747,50.3595856,530.92],[6.9926109,50.3595348,530.69],[6.9923508,50.3594044,531.11],[6.9920221,50.35923,531.36],[6.9918836,50.3591603,531.4],[6.9917158,50.3590883,531.32],[6.9914972,50.359018,531.08],[6.991334,50.3589771,530.89],[6.991115,50.3589314,530.62],[6.9907379,50.3588805,529.98],[6.9905072,50.358856,529.54],[6.9902334,50.3588202,529.13],[6.9898518,50.3587585,528.74],[6.9896648,50.3587252,528.62],[6.9894549,50.3586806,528.59],[6.9877574,50.3582743,531.27],[6.9875541,50.3582344,531.59],[6.9873508,50.3581994,531.82],[6.9869138,50.3581439,532.32],[6.9866519,50.3581232,532.91],[6.9864118,50.3581128,533.71],[6.9861819,50.358109,534.57],[6.9860243,50.3581174,535.15],[6.9859075,50.3581306,535.59],[6.9857932,50.3581535,536.02],[6.9856521,50.3581913,536.55],[6.9855468,50.3582246,536.96],[6.9854281,50.3582728,537.42],[6.9852638,50.358355,538.07],[6.9848127,50.3586129,539.66],[6.984639,50.3587091,540.05],[6.9844146,50.3588149,540.37],[6.9842643,50.3588719,540.52],[6.9841828,50.3588948,540.6],[6.9841013,50.3589144,540.68],[6.9840172,50.3589292,540.79],[6.9839332,50.3589407,540.9],[6.9838568,50.3589474,541.01],[6.9837753,50.358946,541.16],[6.9837136,50.3589435,541.26],[6.9836354,50.3589354,541.37],[6.9834727,50.3589054,541.47],[6.9833106,50.3588588,541.4],[6.983146,50.3588009,541.18],[6.9828239,50.3586619,540.99],[6.9822684,50.3584227,542.32],[6.9815413,50.3581038,546.66],[6.9813626,50.3580143,547.85],[6.9813092,50.3579782,548.21],[6.9812678,50.3579421,548.53],[6.9812261,50.357902,548.81],[6.9811965,50.3578657,549.01],[6.9811722,50.3578266,549.19],[6.9811555,50.3577884,549.33],[6.9811457,50.3577471,549.44],[6.9811433,50.3577068,549.53],[6.9811547,50.3576636,549.6],[6.981172,50.3576243,549.68],[6.9811985,50.3575772,549.76],[6.9812279,50.357534,549.85],[6.9812753,50.357486,549.97],[6.9813286,50.3574456,550.1],[6.9815957,50.3572493,550.87],[6.9818028,50.3571103,551.37],[6.9820006,50.356995,551.5],[6.9821066,50.356947,551.42],[6.982205,50.356904,551.28],[6.9824247,50.3568259,550.85],[6.9827319,50.3567373,550.23],[6.9830823,50.3566472,549.62],[6.9839792,50.3564391,549.75],[6.9850029,50.3562338,552.13],[6.9851507,50.3562016,552.7],[6.9852577,50.3561681,553.31],[6.9853328,50.3561333,553.92],[6.985395,50.3560985,554.51],[6.9854626,50.3560465,555.34],[6.9855281,50.3559891,556.22],[6.9858878,50.3556427,560.16],[6.9859393,50.3555808,560.62],[6.9859807,50.3555271,560.98],[6.986044,50.3554191,561.61],[6.9862829,50.3548791,562.79],[6.9863194,50.3547522,562.49],[6.9863357,50.3546156,562],[6.9863341,50.3545219,561.59],[6.9863225,50.3544411,561.22],[6.9863042,50.3543598,560.82],[6.9862808,50.3542752,560.38],[6.9862494,50.354191,559.93],[6.9862103,50.3541198,559.56],[6.9861386,50.3540089,558.96],[6.9860726,50.3539268,558.51],[6.9860017,50.3538538,558.12],[6.9859117,50.3537712,557.69],[6.9858347,50.3537121,557.4],[6.9857352,50.3536417,557.06],[6.9856425,50.3535843,556.82],[6.9855332,50.3535246,556.59],[6.9854013,50.3534631,556.41],[6.985223,50.3533926,556.31],[6.9832441,50.3527008,556.33],[6.9831675,50.3526741,556.18],[6.9828358,50.352546,555.16],[6.9762865,50.3500245,543.07],[6.9738476,50.3490869,546.05],[6.9708251,50.3478978,550.74],[6.9693923,50.3473197,555.96],[6.9679841,50.3467539,563.74],[6.9646876,50.3454266,575.7],[6.9609668,50.3439256,589.31],[6.9599434,50.3435137,590.13],[6.9596755,50.3433955,590.31],[6.9594464,50.3432828,590.26],[6.9592267,50.3431563,589.75],[6.9590849,50.3430657,589.21],[6.958938,50.3429662,588.5],[6.9581339,50.3423351,583.16],[6.9577543,50.3420393,582.79],[6.9562155,50.3408439,589.11],[6.95607,50.3407127,589.47],[6.9559632,50.340609,588.82],[6.9558687,50.340512,588.14],[6.9557741,50.3403983,588.07],[6.9557025,50.3402998,588.81],[6.9555655,50.3401093,592.37],[6.9554198,50.3399202,597.01],[6.9553238,50.3398208,599.1],[6.9552085,50.3397132,600.79],[6.9551178,50.3396417,601.57],[6.9549679,50.339538,602.33],[6.9539043,50.3388844,606.48],[6.9538264,50.3388295,606.68],[6.9537561,50.3387681,606.86],[6.9536864,50.3387027,607.03],[6.9536282,50.3386368,607.17],[6.9535757,50.3385702,607.29],[6.9535091,50.3384709,607.45],[6.9534466,50.3383564,607.61],[6.9534156,50.3383033,607.69],[6.9533653,50.338242,607.82],[6.9533255,50.3381976,607.91],[6.9532628,50.3381535,608.05],[6.9531754,50.3381137,608.27],[6.9530677,50.3380852,608.55],[6.9529567,50.3380744,608.87],[6.9528681,50.338075,609.15],[6.9527797,50.338079,609.45],[6.9525902,50.3381036,610.19],[6.9523733,50.338124,611.09],[6.9522829,50.3381207,611.47],[6.9521927,50.3381102,611.87],[6.9520729,50.3380819,612.46],[6.9519733,50.3380487,613.02],[6.9515089,50.3378554,615.94],[6.951275,50.337751,617.11],[6.9512265,50.3377306,617.31],[6.9511202,50.3377117,617.74],[6.9510761,50.3377127,617.92],[6.951023,50.3377195,618.14],[6.9509513,50.3377353,618.45],[6.950868,50.3377605,618.83],[6.9506441,50.3378599,619.86],[6.9503196,50.338024,621.08],[6.9498572,50.3382678,622.15],[6.9496195,50.3384123,622.27],[6.949453,50.3385235,622.42],[6.9492416,50.3386769,622.89],[6.9491256,50.3387732,623.29],[6.9488824,50.3389832,624.5],[6.9486675,50.3391848,625.59],[6.9486183,50.339226,625.78],[6.9485626,50.3392684,625.96],[6.9485171,50.3392911,626.08],[6.9484622,50.3393143,626.22],[6.948436,50.3393221,626.28],[6.948407,50.3393299,626.34],[6.9483767,50.3393367,626.4],[6.9483418,50.3393434,626.47],[6.9483217,50.3393461,626.51],[6.948297,50.3393483,626.55],[6.9482718,50.3393488,626.6],[6.9482448,50.3393475,626.66],[6.9482128,50.3393438,626.72],[6.9481884,50.339339,626.78],[6.948163,50.3393316,626.83],[6.9480921,50.339307,627],[6.9480445,50.3392871,627.12],[6.9480015,50.3392658,627.24],[6.9479537,50.3392365,627.39],[6.9478922,50.3391949,627.59],[6.9478046,50.3391233,627.91],[6.9477288,50.3390492,628.17],[6.9470826,50.3382658,623.7],[6.9470009,50.3381818,622.85],[6.9469035,50.3380961,621.56],[6.9467715,50.3380043,619.76],[6.9465452,50.3378736,616.98],[6.9463414,50.3377813,615.02],[6.9461167,50.337688,612.94],[6.9459868,50.3376425,611.8],[6.945473,50.337485,606.62],[6.9450709,50.3373742,602.05],[6.94492,50.3373435,600.21],[6.9447864,50.3373291,598.66],[6.9446516,50.3373194,597.22],[6.9445311,50.3373179,596.17],[6.9443909,50.3373243,595.21],[6.944251,50.3373375,594.46],[6.9440764,50.3373691,593.58],[6.9439096,50.3374163,592.79],[6.9425737,50.3378552,589.54],[6.9424368,50.3378964,589.37],[6.9421846,50.3379549,589.09],[6.941844,50.3380157,589.13],[6.9415492,50.3380496,588.91],[6.9413132,50.3380658,588.33],[6.9400722,50.3381309,582.53],[6.939961,50.3381322,582.74]]}}]}
